NORAD_CAT_ID,OBJECT_NAME,OBJECT_TYPE,EPOCH,MEAN_MOTION,ECCENTRICITY,INCLINATION,RA_OF_ASC_NODE,ARG_OF_PERICENTER,MEAN_ANOMALY,BSTAR,MEAN_MOTION_DOT,MEAN_MOTION_DDOT,TLE_LINE0,TLE_LINE1,TLE_LINE2,SEMIMAJOR_AXIS,PERIOD,APOGEE,PERIGEE,DECAYED
52657.0,STARLINK-4084,PAYLOAD,2023-02-28 10:00:06,15.08860085,0.0001254,53.2158,75.8866,95.2833,264.8302,0.00038754,5.889e-05,0.0,0 STARLINK-4084,1 52657U 22053B   23059.41674160  .00005889  00000-0  38754-3 0  9995,2 52657  53.2158  75.8866 0001254  95.2833 264.8302 15.08860085 44557,6917.819,95.436,540.551,538.817,0.0
52657.0,STARLINK-4084,PAYLOAD,2023-02-28 17:57:02,15.08840684,0.0001657,53.2169,74.3954,77.0085,283.1092,6.7883e-05,7.92e-06,0.0,0 STARLINK-4084,1 52657U 22053B   23059.74794946  .00000792  00000-0  67883-4 0  9990,2 52657  53.2169  74.3954 0001657  77.0085 283.1092 15.08840684 44604,6917.878,95.438,540.89,538.597,0.0
52657.0,STARLINK-4084,PAYLOAD,2023-02-28 21:07:49,15.08815142,0.0001156,53.2164,73.8038,95.4991,264.6133,-0.00051409,-8.455e-05,0.0,0 STARLINK-4084,1 52657U 22053B   23059.88043583 -.00008455  00000-0 -51409-3 0  9991,2 52657  53.2164  73.8038 0001156  95.4991 264.6133 15.08815142 44623,6917.956,95.439,540.621,539.022,0.0
52657.0,STARLINK-4084,PAYLOAD,2023-03-01 01:53:59,15.08812373,0.0001111,53.2162,72.9113,90.3479,269.764,-0.00064616,-0.00010549,0.0,0 STARLINK-4084,1 52657U 22053B   23060.07915768 -.00010549  00000-0 -64616-3 0  9998,2 52657  53.2162  72.9113 0001111  90.3479 269.7640 15.08812373 44656,6917.965,95.439,540.598,539.061,0.0
52657.0,STARLINK-4084,PAYLOAD,2023-03-01 17:47:51,15.08823574,0.0001216,53.216,69.9381,81.6592,278.4538,3.6245e-05,2.89e-06,0.0,0 STARLINK-4084,1 52657U 22053B   23060.74156704  .00000289  00000-0  36245-4 0  9995,2 52657  53.2160  69.9381 0001216  81.6592 278.4538 15.08823574 44751,6917.931,95.439,540.637,538.954,0.0
52657.0,STARLINK-4084,PAYLOAD,2023-03-01 20:58:37,15.08829286,0.0001137,53.2162,69.3428,82.0078,278.1044,0.00025583,3.785e-05,0.0,0 STARLINK-4084,1 52657U 22053B   23060.87404724  .00003785  00000-0  25583-3 0  9993,2 52657  53.2162  69.3428 0001137  82.0078 278.1044 15.08829286 44772,6917.913,95.438,540.565,538.992,0.0
52657.0,STARLINK-4084,PAYLOAD,2023-03-02 17:38:38,15.08862792,0.0001223,53.2161,65.4768,77.3838,282.7291,0.0012488,0.00019655,0.0,0 STARLINK-4084,1 52657U 22053B   23061.73516660  .00019655  00000-0  12488-2 0  9994,2 52657  53.2161  65.4768 0001223  77.3838 282.7291 15.08862792 44901,6917.811,95.436,540.522,538.83,0.0
52657.0,STARLINK-4084,PAYLOAD,2023-03-03 09:32:28,15.0888794,0.0001301,53.2161,62.5027,86.005,274.1091,0.0017523,0.00027747,0.0,0 STARLINK-4084,1 52657U 22053B   23062.39755373  .00027747  00000-0  17523-2 0  9999,2 52657  53.2161  62.5027 0001301  86.0050 274.1091 15.08887940 45004,6917.734,95.435,540.499,538.699,0.0
52657.0,STARLINK-4084,PAYLOAD,2023-03-03 17:29:24,15.08867512,0.0001279,53.2166,61.0161,88.9587,271.1552,0.00066867,0.00010378,0.0,0 STARLINK-4084,1 52657U 22053B   23062.72875204  .00010378  00000-0  66867-3 0  9990,2 52657  53.2166  61.0161 0001279  88.9587 271.1552 15.08867512 45059,6917.796,95.436,540.546,538.777,0.0
52657.0,STARLINK-4084,PAYLOAD,2023-03-03 23:50:56,15.08865533,0.0001914,53.2166,59.8269,87.3893,272.7319,0.0004407,6.737e-05,0.0,0 STARLINK-4084,1 52657U 22053B   23062.99371156  .00006737  00000-0  44070-3 0  9992,2 52657  53.2166  59.8269 0001914  87.3893 272.7319 15.08865533 45095,6917.802,95.436,540.991,538.343,0.0
52657.0,STARLINK-4084,PAYLOAD,2023-03-04 10:58:37,15.08867892,0.0001397,53.218,57.7432,111.7164,248.3977,0.00046279,7.091e-05,0.0,0 STARLINK-4084,1 52657U 22053B   23063.45738382  .00007091  00000-0  46279-3 0  9999,2 52657  53.2180  57.7432 0001397 111.7164 248.3977 15.08867892 45165,6917.795,95.436,540.627,538.694,0.0
52657.0,STARLINK-4084,PAYLOAD,2023-03-04 23:41:43,15.0884032,0.0001622,53.2162,55.3637,101.9676,258.1498,8.8088e-06,-1.48e-06,0.0,0 STARLINK-4084,1 52657U 22053B   23063.98731254 -.00000148  00000-0  88088-5 0  9991,2 52657  53.2162  55.3637 0001622 101.9676 258.1498 15.08840320 45249,6917.879,95.438,540.866,538.622,0.0
52657.0,STARLINK-4084,PAYLOAD,2023-03-05 09:14:02,15.08849759,0.0001081,53.2173,53.5814,79.6319,280.4795,0.0018274,0.00028923,0.0,0 STARLINK-4084,1 52657U 22053B   23064.38475491  .00028923  00000-0  18274-2 0  9991,2 52657  53.2173  53.5814 0001081  79.6319 280.4795 15.08849759 45302,6917.851,95.437,540.463,538.968,0.0
52657.0,STARLINK-4084,PAYLOAD,2023-03-06 02:43:17,15.08865716,0.0001011,53.2178,50.3098,112.241,247.869,0.0020346,0.00032264,0.0,0 STARLINK-4084,1 52657U 22053B   23065.11339517  .00032264  00000-0  20346-2 0  9997,2 52657  53.2178  50.3098 0001011 112.2410 247.8690 15.08865716 45419,6917.802,95.436,540.366,538.967,0.0
52657.0,STARLINK-4084,PAYLOAD,2023-03-06 10:40:12,15.08887399,0.000123,53.218,48.8218,102.0623,258.0507,0.0018979,0.00030086,0.0,0 STARLINK-4084,1 52657U 22053B   23065.44458601  .00030086  00000-0  18979-2 0  9998,2 52657  53.2180  48.8218 0001230 102.0623 258.0507 15.08887399 45461,6917.736,95.435,540.451,538.75,0.0
52657.0,STARLINK-4084,PAYLOAD,2023-03-07 05:44:51,15.0883505,0.0001166,53.218,45.2568,90.5352,269.5774,0.0019175,0.00030357,0.0,0 STARLINK-4084,1 52657U 22053B   23066.23948012  .00030357  00000-0  19175-2 0  9996,2 52657  53.2180  45.2568 0001166  90.5352 269.5774 15.08835050 45581,6917.896,95.438,540.567,538.954,0.0
52657.0,STARLINK-4084,PAYLOAD,2023-03-07 21:38:42,15.08847988,0.0001258,53.2177,42.2837,97.0237,263.0899,0.0012359,0.0001944,0.0,0 STARLINK-4084,1 52657U 22053B   23066.90188214  .00019440  00000-0  12359-2 0  9997,2 52657  53.2177  42.2837 0001258  97.0237 263.0899 15.08847988 45680,6917.856,95.437,540.591,538.851,0.0
52657.0,STARLINK-4084,PAYLOAD,2023-03-08 02:24:51,15.08850079,0.0001247,53.218,41.3925,93.2203,266.8932,0.0010571,0.0001658,0.0,0 STARLINK-4084,1 52657U 22053B   23067.10060151  .00016580  00000-0  10571-2 0  9995,2 52657  53.2180  41.3925 0001247  93.2203 266.8932 15.08850079 45719,6917.85,95.437,540.577,538.852,0.0
52657.0,STARLINK-4084,PAYLOAD,2023-03-08 08:46:24,15.08873731,0.0001192,53.2175,40.2001,86.3244,273.7884,0.0017945,0.00028413,0.0,0 STARLINK-4084,1 52657U 22053B   23067.36555608  .00028413  00000-0  17945-2 0  9999,2 52657  53.2175  40.2001 0001192  86.3244 273.7884 15.08873731 45750,6917.777,95.435,540.467,538.818,0.0
52657.0,STARLINK-4084,PAYLOAD,2023-03-08 15:07:57,15.08861408,0.0002586,53.2169,39.0102,71.6894,288.438,0.0015111,0.00023858,0.0,0 STARLINK-4084,1 52657U 22053B   23067.63052203  .00023858  00000-0  15111-2 0  9993,2 52657  53.2169  39.0102 0002586  71.6894 288.4380 15.08861408 45793,6917.815,95.436,541.469,537.891,0.0
52657.0,STARLINK-4084,PAYLOAD,2023-03-08 21:29:29,15.08856591,0.0002233,53.2176,37.8241,75.4847,284.6393,0.0012675,0.00019951,0.0,0 STARLINK-4084,1 52657U 22053B   23067.89548021  .00019951  00000-0  12675-2 0  9990,2 52657  53.2176  37.8241 0002233  75.4847 284.6393 15.08856591 45834,6917.83,95.437,541.239,538.15,0.0
52657.0,STARLINK-4084,PAYLOAD,2023-03-09 02:15:38,15.08848056,0.0001389,53.2176,36.9309,75.9993,284.1154,0.00047606,7.298e-05,0.0,0 STARLINK-4084,1 52657U 22053B   23068.09419923  .00007298  00000-0  47606-3 0  9995,2 52657  53.2176  36.9309 0001389  75.9993 284.1154 15.08848056 45867,6917.856,95.437,540.682,538.76,0.0
52657.0,STARLINK-4084,PAYLOAD,2023-03-09 05:26:25,15.0884588,0.000155,53.2176,36.3362,75.0136,285.1028,0.000339,5.112e-05,0.0,0 STARLINK-4084,1 52657U 22053B   23068.22667897  .00005112  00000-0  33900-3 0  9990,2 52657  53.2176  36.3362 0001550  75.0136 285.1028 15.08845880 45885,6917.862,95.437,540.8,538.655,0.0
52657.0,STARLINK-4084,PAYLOAD,2023-03-10 03:41:48,15.08854171,0.000145,53.2182,32.1719,76.4889,283.6265,0.00061787,9.563e-05,0.0,0 STARLINK-4084,1 52657U 22053B   23069.15403616  .00009563  00000-0  61787-3 0  9998,2 52657  53.2182  32.1719 0001450  76.4889 283.6265 15.08854171 46027,6917.837,95.437,540.705,538.699,0.0
52657.0,STARLINK-4084,PAYLOAD,2023-03-10 14:49:30,15.08842477,0.0001256,53.2186,30.0897,76.6379,283.4753,0.00019216,2.772e-05,0.0,0 STARLINK-4084,1 52657U 22053B   23069.61771610  .00002772  00000-0  19216-3 0  9996,2 52657  53.2186  30.0897 0001256  76.6379 283.4753 15.08842477 46098,6917.873,95.437,540.607,538.869,0.0
52657.0,STARLINK-4084,PAYLOAD,2023-03-11 03:32:36,15.08824158,0.000127,53.218,27.7122,68.5514,291.5614,-0.00014852,-2.65e-05,0.0,0 STARLINK-4084,1 52657U 22053B   23070.14764683 -.00002650  00000-0 -14852-3 0  9996,2 52657  53.2180  27.7122 0001270  68.5514 291.5614 15.08824158 46174,6917.929,95.439,540.672,538.915,0.0
52657.0,STARLINK-4084,PAYLOAD,2023-03-11 06:43:23,15.08835243,0.0001238,53.2188,27.1172,73.0597,287.0531,0.00063922,9.899e-05,0.0,0 STARLINK-4084,1 52657U 22053B   23070.28012737  .00009899  00000-0  63922-3 0  9999,2 52657  53.2188  27.1172 0001238  73.0597 287.0531 15.08835243 46194,6917.895,95.438,540.616,538.903,0.0
52657.0,STARLINK-4084,PAYLOAD,2023-03-11 21:01:51,15.08832084,0.0001231,53.2191,24.4387,90.2359,269.8774,0.00041894,6.384e-05,0.0,0 STARLINK-4084,1 52657U 22053B   23070.87629236  .00006384  00000-0  41894-3 0  9992,2 52657  53.2191  24.4387 0001231  90.2359 269.8774 15.08832084 46283,6917.905,95.438,540.621,538.918,0.0
52657.0,STARLINK-4084,PAYLOAD,2023-03-12 06:34:10,15.08850551,0.0001485,53.2169,22.6549,100.5167,259.5992,0.00090488,0.00014147,0.0,0 STARLINK-4084,1 52657U 22053B   23071.27372919  .00014147  00000-0  90488-3 0  9999,2 52657  53.2169  22.6549 0001485 100.5167 259.5992 15.08850551 46345,6917.848,95.437,540.74,538.686,0.0
52657.0,STARLINK-4084,PAYLOAD,2023-03-13 04:49:33,15.08856846,0.0001181,53.2185,18.4907,102.1297,257.9827,0.00021264,3.099e-05,0.0,0 STARLINK-4084,1 52657U 22053B   23072.20107938  .00003099  00000-0  21264-3 0  9990,2 52657  53.2185  18.4907 0001181 102.1297 257.9827 15.08856846 46486,6917.829,95.436,540.511,538.877,0.0
